NORAD_CAT_ID,OBJECT_NAME,OBJECT_TYPE,EPOCH,MEAN_MOTION,ECCENTRICITY,INCLINATION,RA_OF_ASC_NODE,ARG_OF_PERICENTER,MEAN_ANOMALY,BSTAR,MEAN_MOTION_DOT,MEAN_MOTION_DDOT,TLE_LINE0,TLE_LINE1,TLE_LINE2,SEMIMAJOR_AXIS,PERIOD,APOGEE,PERIGEE,DECAYED
55635.0,STARLINK-5495,PAYLOAD,2023-10-20 04:07:31,14.9831765,0.0002356,70.0023,221.9733,277.8911,82.1981,9.1736e-05,1.001e-05,0.0,0 STARLINK-5495,1 55635U 23021H   23293.17188937  .00001001  00000-0  91736-4 0  9997,2 55635  70.0023 221.9733 0002356 277.8911  82.1981 14.98317650 37942,6950.231,96.108,573.734,570.459,0.0
55635.0,STARLINK-5495,PAYLOAD,2023-10-20 05:43:39,14.98318582,0.0002342,70.0025,221.805,279.5563,80.5332,0.00010284,1.134e-05,0.0,0 STARLINK-5495,1 55635U 23021H   23293.23864910  .00001134  00000-0  10284-3 0  9991,2 55635  70.0025 221.8050 0002342 279.5563  80.5332 14.98318582 38254,6950.228,96.108,573.721,570.465,0.0
55635.0,STARLINK-5495,PAYLOAD,2023-10-20 21:44:59,14.98326232,0.0002561,70.0024,220.1222,265.8659,94.2207,-4.0614e-06,-1.41e-06,0.0,0 STARLINK-5495,1 55635U 23021H   23293.90624612 -.00000141  00000-0 -40614-5 0  9999,2 55635  70.0024 220.1222 0002561 265.8659  94.2207 14.98326232 38358,6950.205,96.107,573.849,570.29,0.0
55635.0,STARLINK-5495,PAYLOAD,2023-10-21 02:33:23,14.98373796,0.0002608,70.0024,219.6172,275.22,84.8661,-0.00064818,-7.827e-05,0.0,0 STARLINK-5495,1 55635U 23021H   23294.10651852 -.00007827  00000-0 -64818-3 0  9996,2 55635  70.0024 219.6172 0002608 275.2200  84.8661 14.98373796 38080,6950.057,96.104,573.735,570.11,0.0
55635.0,STARLINK-5495,PAYLOAD,2023-10-21 12:10:10,14.98378675,0.0002579,70.0029,218.6067,276.7467,83.3398,-0.00068434,-8.259e-05,0.0,0 STARLINK-5495,1 55635U 23021H   23294.50706676 -.00008259  00000-0 -68434-3 0  9993,2 55635  70.0029 218.6067 0002579 276.7467  83.3398 14.98378675 38447,6950.042,96.104,573.7,570.115,0.0
55635.0,STARLINK-5495,PAYLOAD,2023-10-21 20:10:51,14.98333717,0.0002812,70.0017,217.7667,264.3722,95.7116,0.00016743,1.906e-05,0.0,0 STARLINK-5495,1 55635U 23021H   23294.84087493  .00001906  00000-0  16743-3 0  9995,2 55635  70.0017 217.7667 0002812 264.3722  95.7116 14.98333717 38192,6950.181,96.107,574.001,570.092,0.0
55635.0,STARLINK-5495,PAYLOAD,2023-10-21 21:46:59,14.98336406,0.0002585,70.0015,217.5975,257.0123,103.0747,0.00020133,2.31e-05,0.0,0 STARLINK-5495,1 55635U 23021H   23294.90763179  .00002310  00000-0  20133-3 0  9992,2 55635  70.0015 217.5975 0002585 257.0123 103.0747 14.98336406 38507,6950.173,96.107,573.835,570.241,0.0
55635.0,STARLINK-5495,PAYLOAD,2023-10-22 04:11:31,14.98343788,0.0002697,70.0015,216.9236,262.4078,97.6775,0.00021054,2.421e-05,0.0,0 STARLINK-5495,1 55635U 23021H   23295.17466539  .00002421  00000-0  21054-3 0  9998,2 55635  70.0015 216.9236 0002697 262.4078  97.6775 14.98343788 38244,6950.15,96.106,573.89,570.141,0.0
55635.0,STARLINK-5495,PAYLOAD,2023-10-22 20:12:45,14.98401662,0.000235,70.0012,215.2403,292.3697,67.7213,0.00069475,8.222e-05,0.0,0 STARLINK-5495,1 55635U 23021H   23295.84219698  .00008222  00000-0  69475-3 0  9998,2 55635  70.0012 215.2403 0002350 292.3697  67.7213 14.98401662 38346,6949.971,96.102,573.47,570.203,0.0
55635.0,STARLINK-5495,PAYLOAD,2023-10-22 21:48:42,14.98545626,0.0001902,70.0014,215.0717,249.9604,110.135,0.00228,0.00027369,0.0,0 STARLINK-5495,1 55635U 23021H   23295.90882748  .00027369  00000-0  22800-2 0  9990,2 55635  70.0014 215.0717 0001902 249.9604 110.1350 14.98545626 38650,6949.526,96.093,572.713,570.069,0.0
55635.0,STARLINK-5495,PAYLOAD,2023-10-23 02:36:57,14.98626246,0.000202,70.0016,214.5665,267.5166,92.5762,0.0030474,0.00036739,0.0,0 STARLINK-5495,1 55635U 23021H   23296.10900397  .00036739  00000-0  30474-2 0  9991,2 55635  70.0016 214.5665 0002020 267.5166  92.5762 14.98626246 38387,6949.277,96.088,572.546,569.738,0.0
55635.0,STARLINK-5495,PAYLOAD,2023-10-23 12:13:26,14.98786777,0.0002708,70.0013,213.557,270.7724,89.3125,0.0042758,0.00051915,0.0,0 STARLINK-5495,1 55635U 23021H   23296.50933136  .00051915  00000-0  42758-2 0  9993,2 55635  70.0013 213.5570 0002708 270.7724  89.3125 14.98786777 38447,6948.781,96.078,572.527,568.764,0.0
55635.0,STARLINK-5495,PAYLOAD,2023-10-23 20:13:56,14.98822578,0.0002561,70.001,212.7151,272.4185,87.6681,0.0041899,0.0005091,0.0,0 STARLINK-5495,1 55635U 23021H   23296.84301303  .00050910  00000-0  41899-2 0  9994,2 55635  70.0010 212.7151 0002561 272.4185  87.6681 14.98822578 38490,6948.67,96.075,572.315,568.755,0.0
55635.0,STARLINK-5495,PAYLOAD,2023-10-23 21:50:02,14.98828209,0.0002582,70.0011,212.5468,271.9462,88.1401,0.0041675,0.00050643,0.0,0 STARLINK-5495,1 55635U 23021H   23296.90974915  .00050643  00000-0  41675-2 0  9991,2 55635  70.0011 212.5468 0002582 271.9462  88.1401 14.98828209 38803,6948.653,96.075,572.312,568.724,0.0
55635.0,STARLINK-5495,PAYLOAD,2023-10-24 04:14:25,14.98854251,0.0002667,70.001,211.8728,270.1648,89.9206,0.0040589,0.00049345,0.0,0 STARLINK-5495,1 55635U 23021H   23297.17668614  .00049345  00000-0  40589-2 0  9997,2 55635  70.0010 211.8728 0002667 270.1648  89.9206 14.98854251 38543,6948.572,96.073,572.29,568.584,0.0
55635.0,STARLINK-5495,PAYLOAD,2023-10-24 12:14:53,14.98911695,0.0002847,70.001,211.0309,266.9954,93.088,0.0032839,0.00039911,0.0,0 STARLINK-5495,1 55635U 23021H   23297.51034595  .00039911  00000-0  32839-2 0  9997,2 55635  70.0010 211.0309 0002847 266.9954  93.0880 14.98911695 38598,6948.395,96.07,572.238,568.281,0.0
55635.0,STARLINK-5495,PAYLOAD,2023-10-25 21:52:41,14.99135579,0.0002707,70.001,207.4938,273.518,86.567,1.7313e-05,1.17e-06,0.0,0 STARLINK-5495,1 55635U 23021H   23298.91159067  .00000117  00000-0  17313-4 0  9992,2 55635  70.0010 207.4938 0002707 273.5180  86.5670 14.99135579 38803,6947.703,96.055,571.449,567.687,0.0
55635.0,STARLINK-5495,PAYLOAD,2023-10-26 04:17:01,14.99100543,0.0002298,70.0008,206.82,262.3083,97.7815,0.00075248,9.077e-05,0.0,0 STARLINK-5495,1 55635U 23021H   23299.17849301  .00009077  00000-0  75248-3 0  9992,2 55635  70.0008 206.8200 0002298 262.3083  97.7815 14.99100543 38840,6947.811,96.058,571.273,568.079,0.0
55635.0,STARLINK-5495,PAYLOAD,2023-10-26 21:53:55,14.99138977,0.0002652,70.001,204.9671,271.2661,88.8195,1.7147e-05,1.15e-06,0.0,0 STARLINK-5495,1 55635U 23021H   23299.91244727  .00000115  00000-0  17147-4 0  9994,2 55635  70.0010 204.9671 0002652 271.2661  88.8195 14.99138977 39259,6947.692,96.055,571.4,567.715,0.0
55635.0,STARLINK-5495,PAYLOAD,2023-10-27 04:18:14,14.99146267,0.0002455,70.0015,204.2957,259.8914,100.1969,5.5679e-05,5.85e-06,0.0,0 STARLINK-5495,1 55635U 23021H   23300.17933630  .00000585  00000-0  55679-4 0  9996,2 55635  70.0015 204.2957 0002455 259.8914 100.1969 14.99146267 38996,6947.67,96.055,571.24,567.829,0.0
55635.0,STARLINK-5495,PAYLOAD,2023-10-27 10:42:35,14.99132543,0.0002336,70.0009,203.6198,277.0567,83.0326,-8.7413e-05,-1.158e-05,0.0,0 STARLINK-5495,1 55635U 23021H   23300.44624521 -.00001158  00000-0 -87413-4 0  9992,2 55635  70.0009 203.6198 0002336 277.0567  83.0326 14.99132543 39037,6947.712,96.056,571.2,567.954,0.0
55635.0,STARLINK-5495,PAYLOAD,2023-10-27 21:55:10,14.9913163,0.0002509,70.0009,202.4408,275.7151,84.3722,-6.505e-05,-8.86e-06,0.0,0 STARLINK-5495,1 55635U 23021H   23300.91331386 -.00000886  00000-0 -65050-4 0  9998,2 55635  70.0009 202.4408 0002509 275.7151  84.3722 14.99131630 39405,6947.715,96.056,571.323,567.837,0.0
55635.0,STARLINK-5495,PAYLOAD,2023-10-28 10:43:49,14.99161762,0.0002542,70.0009,201.0939,274.7052,85.3818,-0.00043992,-5.453e-05,0.0,0 STARLINK-5495,1 55635U 23021H   23301.44709513 -.00005453  00000-0 -43992-3 0  9993,2 55635  70.0009 201.0939 0002542 274.7052  85.3818 14.99161762 39186,6947.622,96.054,571.253,567.721,0.0
55635.0,STARLINK-5495,PAYLOAD,2023-10-28 20:20:19,14.99140387,0.0002587,70.0011,200.0846,264.7828,95.3037,-2.1277e-05,-3.53e-06,0.0,0 STARLINK-5495,1 55635U 23021H   23301.84744312 -.00000353  00000-0 -21277-4 0  9990,2 55635  70.0011 200.0846 0002587 264.7828  95.3037 14.99140387 39245,6947.688,96.055,571.35,567.756,0.0
55635.0,STARLINK-5495,PAYLOAD,2023-10-28 21:56:23,14.9914168,0.0002553,70.001,199.9163,267.222,92.8648,7.7577e-06,1e-08,0.0,0 STARLINK-5495,1 55635U 23021H   23301.91416554  .00000001  00000-0  77577-5 0  9995,2 55635  70.0010 199.9163 0002553 267.2220  92.8648 14.99141680 39550,6947.684,96.055,571.323,567.775,0.0
55635.0,STARLINK-5495,PAYLOAD,2023-10-29 02:44:38,14.9914935,0.0002618,70.0005,199.4093,264.8847,95.2014,6.73e-05,7.27e-06,0.0,0 STARLINK-5495,1 55635U 23021H   23302.11433040  .00000727  00000-0  67300-4 0  9994,2 55635  70.0005 199.4093 0002618 264.8847  95.2014 14.99149350 39287,6947.66,96.054,571.344,567.706,0.0
55635.0,STARLINK-5495,PAYLOAD,2023-10-29 10:45:03,14.99140639,0.0002562,70.0011,198.5666,272.1561,87.9305,-0.00011744,-1.524e-05,0.0,0 STARLINK-5495,1 55635U 23021H   23302.44796074 -.00001524  00000-0 -11744-3 0  9997,2 55635  70.0011 198.5666 0002562 272.1561  87.9305 14.99140639 39331,6947.687,96.055,571.332,567.772,0.0
55635.0,STARLINK-5495,PAYLOAD,2023-10-29 21:57:38,14.99139061,0.0001785,70.0014,197.3884,254.4909,105.6054,-0.0001867,-2.367e-05,0.0,0 STARLINK-5495,1 55635U 23021H   23302.91503284 -.00002367  00000-0 -18670-3 0  9999,2 55635  70.0014 197.3884 0001785 254.4909 105.6054 14.99139061 39705,6947.692,96.055,570.797,568.317,0.0
55635.0,STARLINK-5495,PAYLOAD,2023-10-30 02:45:49,14.9918295,0.0002877,70.0015,196.883,250.1947,109.8903,0.00074978,9.064e-05,0.0,0 STARLINK-5495,1 55635U 23021H   23303.11515379  .00009064  00000-0  74978-3 0  9992,2 55635  70.0015 196.8830 0002877 250.1947 109.8903 14.99182950 39433,6947.556,96.052,571.42,567.423,0.0
55635.0,STARLINK-5495,PAYLOAD,2023-10-30 10:46:23,14.99053771,0.0002341,70.0017,196.0411,263.3524,96.7369,-0.00026036,-3.257e-05,0.0,0 STARLINK-5495,1 55635U 23021H   23303.44888054 -.00003257  00000-0 -26036-3 0  9993,2 55635  70.0017 196.0411 0002341 263.3524  96.7369 14.99053771 39488,6947.956,96.061,571.447,568.194,0.0
